{
  "type": "FeatureCollection",
  "features": [
    {
      "type": "Feature",
      "properties": {
        "site_code": "IND-WG-001",
        "name": "Nilgiri Demonstration Block A",
        "project_code": "PROJ-FOREST-01",
        "project_type": "forest_restoration"
      },
      "geometry": {
        "type": "Polygon",
        "coordinates": [
          [
            [76.60, 11.40],
            [76.65, 11.40],
            [76.65, 11.45],
            [76.60, 11.45],
            [76.60, 11.40]
          ]
        ]
      }
    },
    {
      "type": "Feature",
      "properties": {
        "site_code": "IND-WG-002",
        "name": "Nilgiri Demonstration Block B",
        "project_code": "PROJ-FOREST-01",
        "project_type": "forest_restoration"
      },
      "geometry": {
        "type": "Polygon",
        "coordinates": [
          [
            [76.70, 11.30],
            [76.75, 11.30],
            [76.74, 11.35],
            [76.68, 11.33],
            [76.70, 11.30]
          ]
        ]
      }
    },
    {
      "type": "Feature",
      "properties": {
        "site_code": "IND-WG-003",
        "name": "Silent Valley Demo Buffer",
        "project_code": "PROJ-BIO-01",
        "project_type": "biodiversity_conservation"
      },
      "geometry": {
        "type": "Polygon",
        "coordinates": [
          [
            [76.40, 11.10],
            [76.48, 11.08],
            [76.50, 11.15],
            [76.42, 11.16],
            [76.40, 11.10]
          ]
        ]
      }
    },
    {
      "type": "Feature",
      "properties": {
        "site_code": "IND-WG-004",
        "name": "Wayanad Curated Sample",
        "project_code": "PROJ-BIO-01",
        "project_type": "biodiversity_conservation"
      },
      "geometry": {
        "type": "Polygon",
        "coordinates": [
          [
            [76.00, 11.60],
            [76.10, 11.60],
            [76.10, 11.70],
            [76.00, 11.70],
            [76.00, 11.60]
          ]
        ]
      }
    },
    {
      "type": "Feature",
      "properties": {
        "site_code": "IND-HIM-001",
        "name": "Uttarakhand Pine Demo 1",
        "project_code": "PROJ-REFOREST-01",
        "project_type": "afforestation"
      },
      "geometry": {
        "type": "Polygon",
        "coordinates": [
          [
            [79.00, 30.00],
            [79.05, 30.00],
            [79.04, 30.05],
            [78.99, 30.04],
            [79.00, 30.00]
          ]
        ]
      }
    },
    {
      "type": "Feature",
      "properties": {
        "site_code": "IND-HIM-002",
        "name": "Uttarakhand Pine Demo 2",
        "project_code": "PROJ-REFOREST-01",
        "project_type": "afforestation"
      },
      "geometry": {
        "type": "Polygon",
        "coordinates": [
          [
            [79.10, 30.10],
            [79.15, 30.10],
            [79.15, 30.15],
            [79.10, 30.15],
            [79.10, 30.10]
          ]
        ]
      }
    },
    {
      "type": "Feature",
      "properties": {
        "site_code": "IND-HIM-003",
        "name": "HP Altitude Demo Plot",
        "project_code": "PROJ-REFOREST-01",
        "project_type": "afforestation"
      },
      "geometry": {
        "type": "Polygon",
        "coordinates": [
          [
            [77.10, 31.50],
            [77.15, 31.45],
            [77.20, 31.50],
            [77.15, 31.55],
            [77.10, 31.50]
          ]
        ]
      }
    },
    {
      "type": "Feature",
      "properties": {
        "site_code": "IND-CEN-001",
        "name": "Kanha Corridors Mock A",
        "project_code": "PROJ-LAND-01",
        "project_type": "other"
      },
      "geometry": {
        "type": "Polygon",
        "coordinates": [
          [
            [80.50, 22.30],
            [80.60, 22.30],
            [80.65, 22.35],
            [80.55, 22.38],
            [80.50, 22.30]
          ]
        ]
      }
    },
    {
      "type": "Feature",
      "properties": {
        "site_code": "IND-CEN-002",
        "name": "Kanha Corridors Mock B",
        "project_code": "PROJ-LAND-01",
        "project_type": "landscape_restoration"
      },
      "geometry": {
        "type": "Polygon",
        "coordinates": [
          [
            [80.70, 22.40],
            [80.80, 22.42],
            [80.75, 22.50],
            [80.68, 22.45],
            [80.70, 22.40]
          ]
        ]
      }
    },
    {
      "type": "Feature",
      "properties": {
        "site_code": "IND-CEN-003",
        "name": "Pench Demo Buffer",
        "project_code": "PROJ-LAND-01",
        "project_type": "landscape_restoration"
      },
      "geometry": {
        "type": "Polygon",
        "coordinates": [
          [
            [79.20, 21.60],
            [79.30, 21.60],
            [79.30, 21.70],
            [79.20, 21.70],
            [79.20, 21.60]
          ]
        ]
      }
    },
    {
      "type": "Feature",
      "properties": {
        "site_code": "IND-EAST-001",
        "name": "Simlipal Boundary Demo 1",
        "project_code": "PROJ-FOREST-01",
        "project_type": "forest_restoration"
      },
      "geometry": {
        "type": "Polygon",
        "coordinates": [
          [
            [86.20, 21.80],
            [86.30, 21.75],
            [86.40, 21.85],
            [86.30, 21.90],
            [86.20, 21.80]
          ]
        ]
      }
    },
    {
      "type": "Feature",
      "properties": {
        "site_code": "IND-EAST-002",
        "name": "Simlipal Boundary Demo 2",
        "project_code": "PROJ-FOREST-01",
        "project_type": "forest_restoration"
      },
      "geometry": {
        "type": "Polygon",
        "coordinates": [
          [
            [86.45, 21.65],
            [86.55, 21.60],
            [86.60, 21.70],
            [86.50, 21.75],
            [86.45, 21.65]
          ]
        ]
      }
    }
  ]
}
